[{"OBJECT_NAME":"ONEWEB-0680","OBJECT_ID":"2023-068G","EPOCH":"2026-03-09T22:25:32.549664","MEAN_MOTION":13.21826748,"ECCENTRICITY":0.00017231,"INCLINATION":87.9175,"RA_OF_ASC_NODE":263.7546,"ARG_OF_PERICENTER":72.6675,"MEAN_ANOMALY":287.4647,"EPHEMERIS_TYPE":0,"CLASSIFICATION_TYPE":"U","NORAD_CAT_ID":56716,"ELEMENT_SET_NO":999,"REV_AT_EPOCH":13798,"BSTAR":4.3346706e-5,"MEAN_MOTION_DOT":3.1e-7,"MEAN_MOTION_DDOT":0},{"OBJECT_NAME":"DELTA 1 DEB","OBJECT_ID":"1975-052CM","EPOCH":"2026-03-09T23:51:28.608768","MEAN_MOTION":13.31415563,"ECCENTRICITY":0.00738465,"INCLINATION":99.8139,"RA_OF_ASC_NODE":144.9341,"ARG_OF_PERICENTER":227.2579,"MEAN_ANOMALY":306.1508,"EPHEMERIS_TYPE":0,"CLASSIFICATION_TYPE":"U","NORAD_CAT_ID":21367,"ELEMENT_SET_NO":999,"REV_AT_EPOCH":68958,"BSTAR":0.00021272808,"MEAN_MOTION_DOT":6.1e-7,"MEAN_MOTION_DDOT":0}]
